OBJECT_NAME,OBJECT_ID,EPOCH,MEAN_MOTION,ECCENTRICITY,INCLINATION,RA_OF_ASC_NODE,ARG_OF_PERICENTER,MEAN_ANOMALY,EPHEMERIS_TYPE,CLASSIFICATION_TYPE,NORAD_CAT_ID,ELEMENT_SET_NO,REV_AT_EPOCH,BSTAR,MEAN_MOTION_DOT,MEAN_MOTION_DDOT
STARLINK-31273,2024-017W,2024-02-16T22:43:05.216160,15.43048895,0.0002734,53.1594,103.7119,146.8875,213.2303,0,U,58846,999,486,-0.0070032,-0.00302442,0
STARLINK-31262,2024-017X,2024-02-17T03:21:44.839584,15.43868584,0.0001403,53.1594,102.7864,73.4792,286.6369,0,U,58847,999,489,0.00032084,0.00014396,0
AAC-HSI-SAT3,2023-174DH,2024-02-16T22:06:55.802016,15.06284707,0.0014725,97.4482,123.1318,70.9082,289.3739,0,U,58848,999,1527,0.00048368,7.063e-05,0
2024-018A,2024-018A,2024-02-17T03:27:34.362144,14.32811078,0.0456274,58.6913,318.0018,185.5809,174.0031,0,U,58849,999,289,0.0002977,2.432e-05,0
2024-018B,2024-018B,2024-02-17T03:13:29.931744,14.33535965,0.0453,58.6996,317.9743,186.04,173.5051,0,U,58850,999,288,0.00048276,4.119e-05,0
2024-018C,2024-018C,2024-02-17T03:02:15.158976,14.34059665,0.0450433,58.6883,317.9237,185.5116,174.0858,0,U,58851,999,289,0.00033012,2.741e-05,0
2024-018D,2024-018D,2024-02-16T18:41:48.415776,14.34085461,0.0450739,58.6776,319.1213,184.6969,174.9758,0,U,58852,999,284,0.00096473,8.525e-05,0
STARLINK-31238,2024-019A,2024-02-16T16:00:00.999936,15.51065155,0.0001685,42.9995,169.5347,286.163,125.861,0,U,58853,999,384,0.0013345,0.00080134,0
STARLINK-31158,2024-019B,2024-02-17T06:00:00.999648,15.48905562,0.000201,42.9994,166.1449,256.592,165.94,0,U,58854,999,404,0.00012188,6.41e-05,0
STARLINK-31237,2024-019C,2024-02-17T06:00:00.999648,15.48909828,0.0001752,42.9994,166.1469,270.0787,151.5908,0,U,58855,999,412,5.9973e-05,2.983e-05,0
STARLINK-31244,2024-019D,2024-02-17T06:00:00.999648,15.48907397,0.0001939,42.9994,166.1423,260.0296,163.3614,0,U,58856,999,407,8.9673e-05,4.627e-05,0
STARLINK-31216,2024-019E,2024-02-17T06:00:00.999648,15.50257869,0.0001062,42.9993,165.4001,268.1818,92.7335,0,U,58857,999,408,-0.029366,-0.01538313,0
STARLINK-31226,2024-019F,2024-02-17T06:00:00.999648,15.48900496,0.0001932,42.9994,166.1385,244.7724,180.3481,0,U,58858,999,423,6.8509e-05,3.454e-05,0
STARLINK-31197,2024-019G,2024-02-17T06:00:00.999648,15.48905731,0.0001944,42.9994,166.1354,254.9465,171.0238,0,U,58859,999,423,8.6399e-05,4.445e-05,0
STARLINK-31213,2024-019H,2024-02-17T06:00:00.999648,15.45391845,0.0001241,42.9993,166.0186,282.4134,190.3381,0,U,58860,999,423,-0.049728,-0.02150464,0
STARLINK-31199,2024-019J,2024-02-17T06:00:00.999648,15.48902141,0.0001454,42.9994,166.1315,277.6685,150.0268,0,U,58861,999,423,9.9479e-05,5.169e-05,0
STARLINK-31200,2024-019K,2024-02-17T06:00:00.999648,15.48911691,0.0001492,42.9994,166.1291,273.5874,154.9631,0,U,58862,999,423,-0.00018648,-0.00010633,0
STARLINK-31149,2024-019L,2024-02-16T22:00:00.999936,15.45478524,0.0002121,42.9995,168.084,272.9077,90.9901,0,U,58863,999,418,-0.050139,-0.02172477,0
STARLINK-31242,2024-019M,2024-02-17T06:00:00.999648,15.48893308,0.0001378,42.9994,166.1253,260.1107,170.1644,0,U,58864,999,423,0.00023651,0.00012758,0
STARLINK-31223,2024-019N,2024-02-17T06:00:00.999648,15.48920559,0.0001583,42.9994,166.123,251.8885,179.2334,0,U,58865,999,407,-0.00046105,-0.00025756,0
STARLINK-31219,2024-019P,2024-02-16T22:00:00.999936,15.48882189,0.0001963,42.9995,168.0658,251.5781,119.4701,0,U,58866,999,394,-0.04522,-0.02203637,0
STARLINK-31198,2024-019Q,2024-02-17T06:00:00.999648,15.47857218,0.0001037,42.9993,165.7115,259.298,335.9783,0,U,58867,999,398,-0.045468,-0.02143902,0
STARLINK-31196,2024-019R,2024-02-17T06:00:00.999648,15.48908377,0.0001743,42.9994,166.1154,248.2544,185.4501,0,U,58868,999,399,3.2959e-05,1.488e-05,0
STARLINK-31203,2024-019S,2024-02-17T06:00:00.999648,15.48894637,0.0001996,42.9994,166.1145,264.8224,169.75,0,U,58869,999,423,0.00018017,9.636e-05,0
STARLINK-31201,2024-019T,2024-02-17T06:00:00.999648,15.44953973,0.0001262,42.9994,166.1254,272.9,156.5223,0,U,58870,999,402,-0.050388,-0.02146755,0
STARLINK-31214,2024-019U,2024-02-17T06:00:00.999648,15.48363742,0.0001478,42.9994,166.1089,271.8778,164.3805,0,U,58871,999,402,-0.0434,-0.02090422,0
STARLINK-31215,2024-019V,2024-02-16T22:00:00.999936,15.48910564,0.0001814,42.9994,168.0528,259.0533,117.1716,0,U,58872,999,407,0.00013281,7.016e-05,0
STARLINK-31177,2024-019W,2024-02-17T06:00:00.999648,15.48907624,0.0001734,42.9994,166.1051,271.4682,166.535,0,U,58873,999,423,-0.00010286,-6.018e-05,0
STARLINK-30945,2024-019X,2024-02-17T06:00:00.999648,15.49054836,0.000156,42.9991,165.7037,264.7349,334.8905,0,U,58874,999,424,-0.04383,-0.02155115,0
STARLINK-31212,2024-019Y,2024-02-17T06:00:00.999648,15.46123347,0.00015,42.9993,166.1083,272.6416,164.0974,0,U,58875,999,407,-0.048429,-0.02148618,0
