STARLINK-31273          
1 58846U 24017W   24047.94658815 -.00302442  00000+0 -70032-2 0  9998
2 58846  53.1594 103.7119 0002734 146.8875 213.2303 15.43048895  4866
STARLINK-31262          
1 58847U 24017X   24048.14010231  .00014396  00000+0  32084-3 0  9998
2 58847  53.1594 102.7864 0001403  73.4792 286.6369 15.43868584  4892
AAC-HSI-SAT3            
1 58848U 23174DH  24047.92147919  .00007063  00000+0  48368-3 0  9996
2 58848  97.4482 123.1318 0014725  70.9082 289.3739 15.06284707 15279
2024-018A               
1 58849U 24018A   24048.14414771  .00002432  00000+0  29770-3 0  9994
2 58849  58.6913 318.0018 0456274 185.5809 174.0031 14.32811078  2893
2024-018B               
1 58850U 24018B   24048.13437421  .00004119  00000+0  48276-3 0  9998
2 58850  58.6996 317.9743 0453000 186.0400 173.5051 14.33535965  2880
2024-018C               
1 58851U 24018C   24048.12656434  .00002741  00000+0  33012-3 0  9996
2 58851  58.6883 317.9237 0450433 185.5116 174.0858 14.34059665  2890
2024-018D               
1 58852U 24018D   24047.77903259  .00008525  00000+0  96473-3 0  9993
2 58852  58.6776 319.1213 0450739 184.6969 174.9758 14.34085461  2841
STARLINK-31238          
1 58853U 24019A   24047.66667824  .00080134  00000+0  13345-2 0  9990
2 58853  42.9995 169.5347 0001685 286.1630 125.8610 15.51065155  3842
STARLINK-31158          
1 58854U 24019B   24048.25001157  .00006410  00000+0  12188-3 0  9998
2 58854  42.9994 166.1449 0002010 256.5920 165.9400 15.48905562  4040
STARLINK-31237          
1 58855U 24019C   24048.25001157  .00002983  00000+0  59973-4 0  9994
2 58855  42.9994 166.1469 0001752 270.0787 151.5908 15.48909828  4129
STARLINK-31244          
1 58856U 24019D   24048.25001157  .00004627  00000+0  89673-4 0  9992
2 58856  42.9994 166.1423 0001939 260.0296 163.3614 15.48907397  4079
STARLINK-31216          
1 58857U 24019E   24048.25001157 -.01538313  00000+0 -29366-1 0  9990
2 58857  42.9993 165.4001 0001062 268.1818  92.7335 15.50257869  4080
STARLINK-31226          
1 58858U 24019F   24048.25001157  .00003454  00000+0  68509-4 0  9996
2 58858  42.9994 166.1385 0001932 244.7724 180.3481 15.48900496  4238
STARLINK-31197          
1 58859U 24019G   24048.25001157  .00004445  00000+0  86399-4 0  9995
2 58859  42.9994 166.1354 0001944 254.9465 171.0238 15.48905731  4237
STARLINK-31213          
1 58860U 24019H   24048.25001157 -.02150464  00000+0 -49728-1 0  9996
2 58860  42.9993 166.0186 0001241 282.4134 190.3381 15.45391845  4234
STARLINK-31199          
1 58861U 24019J   24048.25001157  .00005169  00000+0  99479-4 0  9995
2 58861  42.9994 166.1315 0001454 277.6685 150.0268 15.48902141  4231
STARLINK-31200          
1 58862U 24019K   24048.25001157 -.00010633  00000+0 -18648-3 0  9998
2 58862  42.9994 166.1291 0001492 273.5874 154.9631 15.48911691  4239
STARLINK-31149          
1 58863U 24019L   24047.91667824 -.02172477  00000+0 -50139-1 0  9996
2 58863  42.9995 168.0840 0002121 272.9077  90.9901 15.45478524  4183
STARLINK-31242          
1 58864U 24019M   24048.25001157  .00012758  00000+0  23651-3 0  9998
2 58864  42.9994 166.1253 0001378 260.1107 170.1644 15.48893308  4231
STARLINK-31223          
1 58865U 24019N   24048.25001157 -.00025756  00000+0 -46105-3 0  9992
2 58865  42.9994 166.1230 0001583 251.8885 179.2334 15.48920559  4072
STARLINK-31219          
1 58866U 24019P   24047.91667824 -.02203637  00000+0 -45220-1 0  9997
2 58866  42.9995 168.0658 0001963 251.5781 119.4701 15.48882189  3948
STARLINK-31198          
1 58867U 24019Q   24048.25001157 -.02143902  00000+0 -45468-1 0  9999
2 58867  42.9993 165.7115 0001037 259.2980 335.9783 15.47857218  3980
STARLINK-31196          
1 58868U 24019R   24048.25001157  .00001488  00000+0  32959-4 0  9992
2 58868  42.9994 166.1154 0001743 248.2544 185.4501 15.48908377  3999
STARLINK-31203          
1 58869U 24019S   24048.25001157  .00009636  00000+0  18017-3 0  9994
2 58869  42.9994 166.1145 0001996 264.8224 169.7500 15.48894637  4234
STARLINK-31201          
1 58870U 24019T   24048.25001157 -.02146755  00000+0 -50388-1 0  9999
2 58870  42.9994 166.1254 0001262 272.9000 156.5223 15.44953973  4023
STARLINK-31214          
1 58871U 24019U   24048.25001157 -.02090422  00000+0 -43400-1 0  9996
2 58871  42.9994 166.1089 0001478 271.8778 164.3805 15.48363742  4025
STARLINK-31215          
1 58872U 24019V   24047.91667824  .00007016  00000+0  13281-3 0  9997
2 58872  42.9994 168.0528 0001814 259.0533 117.1716 15.48910564  4078
STARLINK-31177          
1 58873U 24019W   24048.25001157 -.00006018  00000+0 -10286-3 0  9992
2 58873  42.9994 166.1051 0001734 271.4682 166.5350 15.48907624  4236
STARLINK-30945          
1 58874U 24019X   24048.25001157 -.02155115  00000+0 -43830-1 0  9997
2 58874  42.9991 165.7037 0001560 264.7349 334.8905 15.49054836  4241
STARLINK-31212          
1 58875U 24019Y   24048.25001157 -.02148618  00000+0 -48429-1 0  9997
2 58875  42.9993 166.1083 0001500 272.6416 164.0974 15.46123347  4078
